[{"OBJECT_NAME":"YAOGAN-40 03A","OBJECT_ID":"2025-199A","EPOCH":"2026-03-09T23:03:31.278816","MEAN_MOTION":14.26419606,"ECCENTRICITY":0.00148498,"INCLINATION":85.9829,"RA_OF_ASC_NODE":86.7514,"ARG_OF_PERICENTER":35.6299,"MEAN_ANOMALY":324.588,"EPHEMERIS_TYPE":0,"CLASSIFICATION_TYPE":"U","NORAD_CAT_ID":65544,"ELEMENT_SET_NO":999,"REV_AT_EPOCH":2627,"BSTAR":0.00017546994,"MEAN_MOTION_DOT":4.42e-6,"MEAN_MOTION_DDOT":0},{"OBJECT_NAME":"FENGYUN 1C DEB","OBJECT_ID":"1999-025AFG","EPOCH":"2026-03-09T20:49:13.873152","MEAN_MOTION":14.49249735,"ECCENTRICITY":0.01054248,"INCLINATION":98.8474,"RA_OF_ASC_NODE":29.347,"ARG_OF_PERICENTER":115.1656,"MEAN_ANOMALY":246.0514,"EPHEMERIS_TYPE":0,"CLASSIFICATION_TYPE":"U","NORAD_CAT_ID":30445,"ELEMENT_SET_NO":999,"REV_AT_EPOCH":444,"BSTAR":0.00063069762,"MEAN_MOTION_DOT":2.528e-5,"MEAN_MOTION_DDOT":0}]
